OBJECT_NAME,OBJECT_ID,EPOCH,MEAN_MOTION,ECCENTRICITY,INCLINATION,RA_OF_ASC_NODE,ARG_OF_PERICENTER,MEAN_ANOMALY,EPHEMERIS_TYPE,CLASSIFICATION_TYPE,NORAD_CAT_ID,ELEMENT_SET_NO,REV_AT_EPOCH,BSTAR,MEAN_MOTION_DOT,MEAN_MOTION_DDOT
PACE-1,2021-059AG,2026-06-16T12:29:57.458688,15.79740672,.00010653,97.6750,5.5863,264.9778,95.1367,0,U,48909,999,27769,.40490054E-3,.74353E-3,0
YAM-3,2021-059AN,2026-06-16T11:39:22.251744,15.48543462,.00050181,97.6988,354.3944,13.0102,347.1276,0,U,48915,999,27688,.18379452E-3,.9691E-4,0
FARADAY_PHOENIX,2021-059AX,2026-06-16T12:26:56.805792,15.78312442,.000279,97.6807,5.4724,300.8094,59.2897,0,U,48924,999,27755,.66595505E-3,.115355E-2,0
DEMO8 (TENZING),2021-059CA,2026-06-16T18:58:48.677088,15.54980028,.0006237,97.7016,1.1796,357.4518,2.6703,0,U,48951,999,27724,.24554E-3,.16364E-3,0
NAPA-2,2021-059CN,2026-06-16T19:40:08.179104,16.00597885,.0003338,97.6635,6.9565,238.0641,122.0313,0,U,48963,999,27775,.66719E-3,.349203E-2,.54079E-4
FENGYUN 3E,2021-062A,2026-06-16T20:23:04.876800,14.19904344,.000283,98.7485,171.2610,87.8364,272.3137,0,U,49008,999,25653,.56587E-4,.76E-6,0
ISS (NAUKA),2021-066A,2026-06-16T20:48:26.492256,15.49265361,.0004749,51.6339,301.6783,194.3570,165.7284,0,U,49044,999,57142,.15124E-3,.7968E-4,0
STARLINK-3100,2021-082Q,2026-06-16T16:57:19.541088,14.98333296,.0003,70.0000,44.7917,268.1971,91.8844,0,U,49144,999,26081,.15168E-4,.88E-6,0
CUTE,2021-088D,2026-06-16T17:56:57.080832,15.93060981,.0007684,97.4163,266.9993,230.1431,129.9168,0,U,49263,999,26248,.3935E-3,.136546E-2,.91656E-5
2021-091B,2021-091B,2026-06-16T20:41:45.920256,15.18554374,.0014598,97.4464,355.4422,46.2687,313.9753,0,U,49316,999,25893,.16033E-3,.3252E-4,0
SDGSAT 1,2021-100A,2026-06-16T20:03:37.101312,15.19925523,.000644,97.2633,214.7984,302.0067,58.0542,0,U,49387,999,25586,.68513E-4,.1407E-4,0
TEIKYOSAT-4 (OORURI),2021-102B,2026-06-16T15:45:33.158592,15.09506570,.0010509,97.3671,197.1608,298.9842,61.0334,0,U,49396,999,25264,.85351E-4,.1308E-4,0
Z-SAT,2021-102E,2026-06-16T20:50:34.372032,15.18260260,.0014866,97.3320,203.2011,245.9949,113.9730,0,U,49399,999,25339,.12772E-3,.2556E-4,0
HIBARI,2021-102F,2026-06-16T16:18:15.712128,15.31721228,.0011358,97.3232,213.5884,193.5417,166.5521,0,U,49400,999,25411,.29357E-3,.8933E-4,0
KOSEN-1,2021-102H,2026-06-16T08:31:28.580160,15.26825516,.00130988,97.3180,209.5285,203.4656,156.5987,0,U,49402,999,25389,.22535552E-3,.5881E-4,0
GLOBAL-14,2021-106A,2026-06-16T01:19:49.653120,15.50554066,.00159442,42.0043,297.8062,10.9627,349.1561,0,U,49469,999,25795,.39230443E-3,.22875E-3,0
GAOFEN-3 02,2021-109A,2026-06-16T20:10:43.103424,14.42216758,.0002948,98.4081,175.9421,18.6153,341.5144,0,U,49495,999,24026,-.25E-5,-.52E-6,0
GLOBAL-12,2021-115BA,2026-06-16T08:46:53.233824,15.53555627,.00031177,53.1956,48.4904,67.3055,292.8286,0,U,49772,999,25577,.44769879E-3,.28617E-3,0
GLOBAL-13,2021-115BB,2026-06-16T20:40:06.339072,15.46029488,.0003826,53.1980,56.1382,109.3255,250.8167,0,U,49773,999,25571,.32105E-3,.15532E-3,0
GLOBAL-17,2021-120A,2026-06-16T09:08:36.119904,15.52217208,.00156262,41.9959,54.0981,251.6526,108.2619,0,U,49949,999,25477,.37654097E-3,.23305E-3,0
GLOBAL-16,2021-120B,2026-06-16T00:09:42.979680,15.50127782,.00134286,41.9966,60.0373,241.0870,118.8627,0,U,49950,999,25466,.36658959E-3,.20995E-3,0
XW-3 (CAS-9),2021-131B,2026-06-16T20:18:44.951040,14.41357864,.0005389,98.4987,260.2376,97.5245,262.6556,0,U,50466,999,23506,.18754E-3,.563E-5,0
ION SCV-004,2022-002K,2026-06-16T17:04:45.715008,15.30448259,.0007229,97.2834,225.3791,9.5746,350.5632,0,U,50993,999,24522,.15115E-3,.4377E-4,0
ETV-A1,2022-002CE,2026-06-16T19:39:12.907296,15.40676152,.0004574,97.2878,234.1251,4.8618,355.2672,0,U,51060,999,24578,.22991E-3,.9299E-4,0
BRO-5,2022-002CF,2026-06-16T20:42:38.834208,15.47348101,.0003694,97.2997,241.5291,332.2955,27.8098,0,U,51061,999,24620,.51788E-3,.26427E-3,0
LUDI TANCE 1-01A (L-SAR 01A),2022-007A,2026-06-16T20:16:47.154144,14.88421494,.0001587,97.8097,175.2699,90.9115,269.2284,0,U,51284,999,23842,.59747E-4,.5E-5,0
LUDI TANCE 1-01B (L-SAR 01B),2022-018A,2026-06-16T21:05:11.045184,14.88418112,.0001619,97.8103,175.2994,92.2682,267.8720,0,U,51822,999,23366,.56835E-4,.473E-5,0
2022-023F,2022-023F,2026-06-16T11:39:20.120256,15.18072257,.0129894,63.4457,275.8648,342.4004,17.2627,0,U,51951,999,23760,.43375579E-3,.10852E-3,0
