PACE-1                  
1 48909U 21059AG  26167.52080392  .00074353  00000+0  40490-3 0  9999
2 48909  97.6750   5.5863 0001065 264.9778  95.1367 15.79740672277698
YAM-3                   
1 48915U 21059AN  26167.48567421  .00009691  00000+0  18379-3 0  9998
2 48915  97.6988 354.3944 0005018  13.0102 347.1276 15.48543462276882
FARADAY_PHOENIX         
1 48924U 21059AX  26167.51871303  .00115355  00000+0  66596-3 0  9998
2 48924  97.6807   5.4724 0002790 300.8094  59.2897 15.78312442277553
DEMO8 (TENZING)         
1 48951U 21059CA  26167.79084117  .00016364  00000+0  24554-3 0  9995
2 48951  97.7016   1.1796 0006237 357.4518   2.6703 15.54980028277246
NAPA-2                  
1 48963U 21059CN  26167.81953911  .00349203  54079-4  66719-3 0  9998
2 48963  97.6635   6.9565 0003338 238.0641 122.0313 16.00597885277759
FENGYUN 3E              
1 49008U 21062A   26167.84936200  .00000076  00000+0  56587-4 0  9993
2 49008  98.7485 171.2610 0002830  87.8364 272.3137 14.19904344256536
ISS (NAUKA)             
1 49044U 21066A   26167.86697329  .00007968  00000+0  15124-3 0  9993
2 49044  51.6339 301.6783 0004749 194.3570 165.7284 15.49265361571425
STARLINK-3100           
1 49144U 21082Q   26167.70647617  .00000088  00000+0  15168-4 0  9995
2 49144  70.0000  44.7917 0003000 268.1971  91.8844 14.98333296260819
CUTE                    
1 49263U 21088D   26167.74788288  .00136546  91656-5  39350-3 0  9997
2 49263  97.4163 266.9993 0007684 230.1431 129.9168 15.93060981262489
2021-091B               
1 49316U 21091B   26167.86233704  .00003252  00000+0  16033-3 0  9998
2 49316  97.4464 355.4422 0014598  46.2687 313.9753 15.18554374258935
SDGSAT 1                
1 49387U 21100A   26167.83584608  .00001407  00000+0  68513-4 0  9997
2 49387  97.2633 214.7984 0006440 302.0067  58.0542 15.19925523255862
TEIKYOSAT-4 (OORURI)    
1 49396U 21102B   26167.65663378  .00001308  00000+0  85351-4 0  9990
2 49396  97.3671 197.1608 0010509 298.9842  61.0334 15.09506570252649
Z-SAT                   
1 49399U 21102E   26167.86845338  .00002556  00000+0  12772-3 0  9996
2 49399  97.3320 203.2011 0014866 245.9949 113.9730 15.18260260253393
HIBARI                  
1 49400U 21102F   26167.67934852  .00008933  00000+0  29357-3 0  9990
2 49400  97.3232 213.5884 0011358 193.5417 166.5521 15.31721228254115
KOSEN-1                 
1 49402U 21102H   26167.35519190  .00005881  00000+0  22536-3 0  9992
2 49402  97.3180 209.5285 0013098 203.4656 156.5987 15.26825516253896
GLOBAL-14               
1 49469U 21106A   26167.05543580  .00022875  00000+0  39230-3 0  9997
2 49469  42.0043 297.8062 0015944  10.9627 349.1561 15.50554066257953
GAOFEN-3 02             
1 49495U 21109A   26167.84077666 -.00000052  00000+0 -25000-5 0  9990
2 49495  98.4081 175.9421 0002948  18.6153 341.5144 14.42216758240265
GLOBAL-12               
1 49772U 21115BA  26167.36589391  .00028617  00000+0  44770-3 0  9993
2 49772  53.1956  48.4904 0003117  67.3055 292.8286 15.53555627255774
GLOBAL-13               
1 49773U 21115BB  26167.86118448  .00015532  00000+0  32105-3 0  9991
2 49773  53.1980  56.1382 0003826 109.3255 250.8167 15.46029488255713
GLOBAL-17               
1 49949U 21120A   26167.38097361  .00023305  00000+0  37654-3 0  9990
2 49949  41.9959  54.0981 0015626 251.6526 108.2619 15.52217208254773
GLOBAL-16               
1 49950U 21120B   26167.00674745  .00020995  00000+0  36659-3 0  9994
2 49950  41.9966  60.0373 0013428 241.0870 118.8627 15.50127782254667
XW-3 (CAS-9)            
1 50466U 21131B   26167.84635360  .00000563  00000+0  18754-3 0  9997
2 50466  98.4987 260.2376 0005389  97.5245 262.6556 14.41357864235062
ION SCV-004             
1 50993U 22002K   26167.71164022  .00004377  00000+0  15115-3 0  9993
2 50993  97.2834 225.3791 0007229   9.5746 350.5632 15.30448259245221
ETV-A1                  
1 51060U 22002CE  26167.81889939  .00009299  00000+0  22991-3 0  9999
2 51060  97.2878 234.1251 0004574   4.8618 355.2672 15.40676152245783
BRO-5                   
1 51061U 22002CF  26167.86294947  .00026427  00000+0  51788-3 0  9992
2 51061  97.2997 241.5291 0003694 332.2955  27.8098 15.47348101246205
LUDI TANCE 1-01A (L-SA*)
1 51284U 22007A   26167.84499021  .00000500  00000+0  59747-4 0  9990
2 51284  97.8097 175.2699 0001587  90.9115 269.2284 14.88421494238424
LUDI TANCE 1-01B (L-SA*)
1 51822U 22018A   26167.87860006  .00000473  00000+0  56835-4 0  9992
2 51822  97.8103 175.2994 0001619  92.2682 267.8720 14.88418112233661
2022-023F               
1 51951U 22023F   26167.48564954  .00010852  00000+0  43376-3 0  9998
2 51951  63.4457 275.8648 0129894 342.4004  17.2627 15.18072257237603
